[{"OBJECT_NAME":"SHIYAN-1 (SY-1)","OBJECT_ID":"2004-012A","EPOCH":"2026-03-09T17:40:34.066560","MEAN_MOTION":15.31043463,"ECCENTRICITY":0.00058726,"INCLINATION":97.8764,"RA_OF_ASC_NODE":140.5238,"ARG_OF_PERICENTER":23.6952,"MEAN_ANOMALY":336.4557,"EPHEMERIS_TYPE":0,"CLASSIFICATION_TYPE":"U","NORAD_CAT_ID":28220,"ELEMENT_SET_NO":999,"REV_AT_EPOCH":19586,"BSTAR":0.00054854449,"MEAN_MOTION_DOT":0.00016393,"MEAN_MOTION_DDOT":0},{"OBJECT_NAME":"STARLINK-35425","OBJECT_ID":"2025-223W","EPOCH":"2026-03-09T21:12:25.371936","MEAN_MOTION":15.30220177,"ECCENTRICITY":5.463e-5,"INCLINATION":53.1607,"RA_OF_ASC_NODE":293.393,"ARG_OF_PERICENTER":104.8489,"MEAN_ANOMALY":255.2572,"EPHEMERIS_TYPE":0,"CLASSIFICATION_TYPE":"U","NORAD_CAT_ID":65874,"ELEMENT_SET_NO":999,"REV_AT_EPOCH":2423,"BSTAR":0.0011163536,"MEAN_MOTION_DOT":0.00032871,"MEAN_MOTION_DDOT":0}]
